ONEWEB-0393             
1 50473U 21132E   24063.23081080  .00000038  00000+0  62376-4 0  9993
2 50473  87.9267 172.1183 0001522 116.1543 243.9746 13.19246022109313
ONEWEB-0394             
1 50474U 21132F   24062.71117974  .00000059  00000+0  11638-3 0  9995
2 50474  87.9216 141.9503 0002065 107.4190 252.7168 13.18686769111350
ONEWEB-0395             
1 50475U 21132G   24062.87851508  .00000424  00000+0  11596-2 0  9999
2 50475  87.9025 187.3615 0001730 118.1447 241.9856 13.11414542106101
ONEWEB-0396             
1 50476U 21132H   24062.78073019  .00000095  00000+0  20836-3 0  9995
2 50476  87.9222 141.9295 0002155 107.2367 252.9001 13.18686674111400
ONEWEB-0397             
1 50477U 21132J   24062.71907760  .00000100  00000+0  22005-3 0  9995
2 50477  87.9221 141.9428 0002144 108.2737 251.8629 13.18685527111374
ONEWEB-0398             
1 50478U 21132K   24062.84603163 -.00000419  00000+0 -12171-2 0  9997
2 50478  87.9023 187.3518 0001368 120.3899 239.7365 13.11418437105990
ONEWEB-0399             
1 50479U 21132L   24062.90771932 -.00000531  00000+0 -15330-2 0  9990
2 50479  87.9023 187.3544 0002117 104.3541 255.7822 13.11415105105994
ONEWEB-0400             
1 50480U 21132M   24062.77440860  .00000001  00000+0 -31268-4 0  9991
2 50480  87.9220 141.9389 0001718 107.2182 252.9138 13.18685292111378
